CRE-(WAAS/PRN-138)------
1 28868U 05036A   21284.53383962 -.00000083  00000-0  00000-0 0  9994
2 28868   0.0011 295.2599 0000714 228.0717 301.8880  1.00271397 29319
IOR-W-(EGNOS/PRN-126)---
1 28899U 05044A   21284.56173787  .00000002  00000-0  00000-0 0  9992
2 28899   3.3194  34.9052 0002779 167.1281  84.4843  1.00271010 58378
QZS-1-(QZSS/PRN-183)----
1 37158U 10045A   21284.44438854 -.00000125  00000-0  00000-0 0  9990
2 37158  42.0738 136.8426 0747989 270.2129 273.8861  1.00292116 40592
GSAT-8-(GAGAN/PRN-127)--
1 37605U 11022A   21284.41090938  .00000076  00000-0  00000-0 0  9991
2 37605   0.0537  92.7963 0005954 158.3742 332.0711  1.00271102 36074
LUCH-5A-(SDCM/PRN-140)--
1 37951U 11074B   21284.64860001 -.00000055  00000-0  00000-0 0  9991
2 37951   4.3942 102.7466 0002925  57.0907 261.0281  1.00270654 36049
SES-5-(EGNOS/PRN-136)---
1 38652U 12036A   21284.54996344  .00000025  00000-0  00000-0 0  9994
2 38652   0.0578 291.3165 0001814 250.5369  41.4839  1.00271715 27357
GSAT-10-(GAGAN/PRN-128)-
1 38779U 12051B   21284.56557546 -.00000175  00000-0  00000-0 0  9997
2 38779   0.0277 124.7612 0002405  88.1800  94.0530  1.00271727 32969
LUCH-5B-(SDCM/PRN-125)--
1 38977U 12061A   21284.20577903 -.00000140  00000-0  00000-0 0  9990
2 38977   6.7540  64.3945 0003765  98.2801 275.1498  1.00271597 33035
ASTRA-5B-(EGNOS/PRN-123)
1 39617U 14011B   21284.55528373  .00000145  00000-0  00000-0 0  9998
2 39617   0.0449 357.1384 0004200 196.7723  57.8760  1.00272928 27527
LUCH-5V-(SDCM/PRN-141)--
1 39727U 14023A   21284.56793036 -.00000278  00000-0  00000-0 0  9992
2 39727   0.9294  66.9354 0002169 120.4853 132.1832  1.00271460 27211
GSAT-15-(GAGAN/PRN-139)-
1 41028U 15065A   21284.40118937 -.00000267  00000-0  00000-0 0  9998
2 41028   0.0594  88.8784 0002611  84.0982  85.1599  1.00271768 21663
E-117-W-B-(WAAS/PRN-131)
1 41589U 16038B   21284.52580115 -.00000021  00000-0  00000-0 0  9993
2 41589   0.0102  38.7449 0000179 242.1524 171.7451  1.00272688 19532
SES-15-(WAAS/PRN-133)---
1 42709U 17026A   21284.61842267  .00000051  00000-0  00000-0 0  9997
2 42709   0.0222 337.0513 0000413 173.0352 323.8286  1.00268128 17010
QZS-2-(QZSS/PRN-184)----
1 42738U 17028A   21284.61550215 -.00000182  00000-0  00000-0 0  9996
2 42738  42.1929 267.6813 0747878 270.5118 202.7112  1.00256224 16005
QZS-3-(QZSS/PRN-189)----
1 42917U 17048A   21284.50260396 -.00000357  00000-0  00000-0 0  9997
2 42917   0.0710 144.9294 0002578  56.4299 126.9505  1.00269181 15117
QZS-4-(QZSS/PRN-185)----
1 42965U 17062A   21284.54798102 -.00000325  00000-0  00000-0 0  9996
2 42965  40.8132   5.3276 0748375 269.9164  81.9476  1.00273112 14670
